JCSAT-13                
1 38331U 12023A   26073.59307554 -.00000357  00000+0  00000+0 0  9996
2 38331   0.0298 258.7165 0002096 119.9487 131.0534  1.00272130 50591
VINASAT-2               
1 38332U 12023B   26073.59463556 -.00000329  00000+0  00000+0 0  9991
2 38332   0.0106 206.3150 0002742 168.1813 143.6195  1.00272587 45716
NIMIQ 6                 
1 38342U 12026A   26073.55043537 -.00000174  00000+0  00000+0 0  9992
2 38342   0.0313 269.1058 0002505  84.6566 285.4533  1.00271616 49464
ZHONGXING-2A            
1 38352U 12028A   26073.65205492 -.00000292  00000+0  00000+0 0  9997
2 38352   1.2083  85.1937 0001064 281.1277 138.9050  1.00269175 50359
INTELSAT 19 (IS-19)     
1 38356U 12030A   26073.63447617 -.00000057  00000+0  00000+0 0  9998
2 38356   0.0191 141.5566 0002930 218.1737 206.9262  1.00271738 49503
ECHOSTAR 17             
1 38551U 12035A   26073.04807596 -.00000076  00000+0  00000+0 0  9992
2 38551   0.0169 142.2371 0001970 210.3973  89.2323  1.00271589 50108
METEOSAT-10 (MSG-3)     
1 38552U 12035B   26073.56854878 -.00000005  00000+0  00000+0 0  9997
2 38552   4.4463  61.4124 0002353 287.8622  27.7302  1.00269338 49907
SES-5                   
1 38652U 12036A   26072.36989076  .00000034  00000+0  00000+0 0  9996
2 38652   0.0621 308.2644 0001933  45.9498 314.9176  1.00273267 43496
INTELSAT 20 (IS-20)     
1 38740U 12043A   26073.58206884 -.00000025  00000+0  00000+0 0  9997
2 38740   0.0197 141.5105 0002552  28.2735 280.4276  1.00270811 49797
HYLAS 2                 
1 38741U 12043B   26073.55407538 -.00000257  00000+0  00000+0 0  9991
2 38741   2.1813  82.2463 0002570 297.5730 279.2633  1.00272514 49829
INTELSAT 21 (IS-21)     
1 38749U 12045A   26073.55702207  .00000000  00000+0  00000+0 0  9997
2 38749   0.0268 152.3281 0001914 219.8385 302.5487  1.00269182 49575
ASTRA 2F                
1 38778U 12051A   26073.57409547  .00000149  00000+0  00000+0 0  9993
2 38778   0.0735 256.9139 0002034  23.8855 126.2349  1.00272536 40181
GSAT-10                 
1 38779U 12051B   26073.58492885 -.00000166  00000+0  00000+0 0  9992
2 38779   0.0494 256.0223 0005079 184.4125  25.3436  1.00272446 49146
INTELSAT 23 (IS-23)     
1 38867U 12057A   26073.48664843 -.00000285  00000+0  00000+0 0  9992
2 38867   0.0396 255.8250 0001065 110.6643 287.7683  1.00269635 49008
BEIDOU-2 G6             
1 38953U 12059A   26073.58510219 -.00000174  00000+0  00000+0 0  9995
2 38953   4.1803  74.5315 0010515 306.4712  85.7813  1.00275873 48968
LUCH-5B                 
1 38977U 12061A   26073.20866997 -.00000132  00000+0  00000+0 0  9994
2 38977  10.2786  50.8054 0003217 227.4516 312.3743  1.00271980 48656
YAMAL 300K              
1 38978U 12061B   26073.39084406  .00000070  00000+0  00000+0 0  9992
2 38978   0.0124 224.9852 0000192 304.6757 325.9840  1.00272262 48689
